{
  "norad_id": 57499,
  "name": "STARLINK-30169",
  "history": [
    {
      "epoch": "2026-03-28T18:58:37.476192Z",
      "apogee_km": 484.57275347501036,
      "perigee_km": 481.3525649609537,
      "latitude_deg": 4.6427001487819993e-05,
      "longitude_deg": 143.14960197717625,
      "height_km": 483.0929435139176,
      "semi_major_axis_km": 6861.099659217982,
      "eccentricity": 0.00023467,
      "inclination_deg": 43.002,
      "raan_deg": 254.0118,
      "arg_perigee_deg": 257.3452,
      "mean_anomaly_deg": 102.7138,
      "mean_motion_rev_day": 15.27608867
    }
  ]
}